ONEWEB-0385             
1 49311U 21090AJ  23253.54275499 -.00000047  00000+0 -14649-3 0  9999
2 49311  87.9181 115.6640 0001278  81.9117 278.2161 13.20770769 96398
ONEWEB-0386             
1 49312U 21090AK  23253.63532673  .00000091  00000+0  19242-3 0  9991
2 49312  87.9183 115.6591 0001439  88.0676 272.0623 13.20774811 97739
ONEWEB-0387             
1 49313U 21090AL  23253.54483309  .00000157  00000+0  35333-3 0  9995
2 49313  87.9199 115.7210 0001451  64.5781 295.5502 13.20776166 96411
ONEWEB-0388             
1 49314U 21090AM  23253.76998082  .00000054  00000+0  10317-3 0  9990
2 49314  87.9267 146.0638 0001832  80.3254 279.8086 13.19723679 94434
ONEWEB-0389             
1 50469U 21132A   23253.79137393  .00000534  00000+0  13412-2 0  9994
2 50469  87.9224 206.6136 0001522  77.2110 282.9192 13.17648902 86312
ONEWEB-0390             
1 50470U 21132B   23253.79347994  .00000105  00000+0  23663-3 0  9990
2 50470  87.9225 206.6195 0002056  63.4701 296.6641 13.17647717 86310
ONEWEB-0391             
1 50471U 21132C   23253.41588706  .00000032  00000+0  48924-4 0  9995
2 50471  87.9225 206.6649 0001752  74.2864 285.8461 13.17650758 84976
ONEWEB-0392             
1 50472U 21132D   23253.36948852  .00000051  00000+0  97558-4 0  9990
2 50472  87.9214 206.7129 0001786  68.7356 291.3966 13.17650318 85009
